NORAD_CAT_ID,OBJECT_NAME,OBJECT_TYPE,EPOCH,MEAN_MOTION,ECCENTRICITY,INCLINATION,RA_OF_ASC_NODE,ARG_OF_PERICENTER,MEAN_ANOMALY,BSTAR,MEAN_MOTION_DOT,MEAN_MOTION_DDOT,TLE_LINE0,TLE_LINE1,TLE_LINE2,SEMIMAJOR_AXIS,PERIOD,APOGEE,PERIGEE,DECAYED
51887.0,STARLINK-3551,PAYLOAD,2024-05-03 18:32:25,15.08852913,0.0001417,53.2149,148.9443,78.0635,282.0516,-0.00022009,-3.79e-05,0.0,0 STARLINK-3551,1 51887U 22022AM  24124.77251211 -.00003790  00000-0 -22009-3 0  9993,2 51887  53.2149 148.9443 0001417  78.0635 282.0516 15.08852913121358,6917.841,95.437,540.686,538.726,0.0
51887.0,STARLINK-3551,PAYLOAD,2024-05-04 05:40:08,15.08826657,0.0001502,53.2149,146.8625,79.6554,280.4607,-7.713e-05,-1.515e-05,0.0,0 STARLINK-3551,1 51887U 22022AM  24125.23620906 -.00001515  00000-0 -77130-4 0  9995,2 51887  53.2149 146.8625 0001502  79.6554 280.4607 15.08826657121426,6917.921,95.438,540.825,538.747,0.0
51887.0,STARLINK-3551,PAYLOAD,2024-05-05 03:55:32,15.08831822,0.0001511,53.2151,142.699,80.3099,279.8063,-3.0247e-05,-7.69e-06,0.0,0 STARLINK-3551,1 51887U 22022AM  24126.16357018 -.00000769  00000-0 -30247-4 0  9997,2 51887  53.2151 142.6990 0001511  80.3099 279.8063 15.08831822121564,6917.905,95.438,540.816,538.725,0.0
51887.0,STARLINK-3551,PAYLOAD,2024-05-05 10:17:04,15.08833954,0.0001521,53.2151,141.5093,80.08,280.0364,-2.6303e-05,-7.07e-06,0.0,0 STARLINK-3551,1 51887U 22022AM  24126.42852995 -.00000707  00000-0 -26303-4 0  9990,2 51887  53.2151 141.5093 0001521  80.0800 280.0364 15.08833954121605,6917.899,95.438,540.816,538.712,0.0
51887.0,STARLINK-3551,PAYLOAD,2024-05-05 18:14:00,15.08833029,0.0001597,53.2155,140.0216,77.5811,282.536,2.9352e-05,1.79e-06,0.0,0 STARLINK-3551,1 51887U 22022AM  24126.75973070  .00000179  00000-0  29352-4 0  9992,2 51887  53.2155 140.0216 0001597  77.5811 282.5360 15.08833029121657,6917.902,95.438,540.871,538.662,0.0
51887.0,STARLINK-3551,PAYLOAD,2024-05-06 05:21:42,15.08830993,0.0001532,53.2161,137.9389,79.1882,280.9283,0.00014844,2.075e-05,0.0,0 STARLINK-3551,1 51887U 22022AM  24127.22341097  .00002075  00000-0  14844-3 0  9999,2 51887  53.2161 137.9389 0001532  79.1882 280.9283 15.08830993121726,6917.908,95.438,540.833,538.713,0.0
51887.0,STARLINK-3551,PAYLOAD,2024-05-06 10:07:52,15.0883389,0.0001547,53.2161,137.0467,79.4569,280.6597,0.00014885,2.081e-05,0.0,0 STARLINK-3551,1 51887U 22022AM  24127.42213046  .00002081  00000-0  14885-3 0  9995,2 51887  53.2161 137.0467 0001547  79.4569 280.6597 15.08833890121752,6917.899,95.438,540.834,538.694,0.0
51887.0,STARLINK-3551,PAYLOAD,2024-05-06 18:04:47,15.08840107,0.0001552,53.2161,135.5601,79.1449,280.9718,0.00016882,2.4e-05,0.0,0 STARLINK-3551,1 51887U 22022AM  24127.75332736  .00002400  00000-0  16882-3 0  9993,2 51887  53.2161 135.5601 0001552  79.1449 280.9718 15.08840107121808,6917.88,95.438,540.819,538.671,0.0
51887.0,STARLINK-3551,PAYLOAD,2024-05-07 06:47:52,15.08847874,0.0001536,53.2163,133.1806,80.5207,279.5959,0.0001892,2.725e-05,0.0,0 STARLINK-3551,1 51887U 22022AM  24128.28324177  .00002725  00000-0  18920-3 0  9997,2 51887  53.2163 133.1806 0001536  80.5207 279.5959 15.08847874121888,6917.856,95.437,540.784,538.659,0.0
51887.0,STARLINK-3551,PAYLOAD,2024-05-07 19:30:57,15.08847828,0.000153,53.2162,130.8022,78.8437,281.2727,0.00012105,1.639e-05,0.0,0 STARLINK-3551,1 51887U 22022AM  24128.81316096  .00001639  00000-0  12105-3 0  9999,2 51887  53.2162 130.8022 0001530  78.8437 281.2727 15.08847828121961,6917.856,95.437,540.78,538.663,0.0
51887.0,STARLINK-3551,PAYLOAD,2024-05-08 06:38:39,15.08848326,0.0001553,53.2162,128.7202,82.3483,277.7685,9.3511e-05,1.201e-05,0.0,0 STARLINK-3551,1 51887U 22022AM  24129.27684059  .00001201  00000-0  93511-4 0  9993,2 51887  53.2162 128.7202 0001553  82.3483 277.7685 15.08848326122039,6917.855,95.437,540.794,538.646,0.0
51887.0,STARLINK-3551,PAYLOAD,2024-05-08 19:21:44,15.08845028,0.0001536,53.2161,126.3415,82.7089,277.4077,7.315e-06,-1.72e-06,0.0,0 STARLINK-3551,1 51887U 22022AM  24129.80676199 -.00000172  00000-0  73150-5 0  9993,2 51887  53.2161 126.3415 0001536  82.7089 277.4077 15.08845028122112,6917.865,95.437,540.793,538.667,0.0
51887.0,STARLINK-3551,PAYLOAD,2024-05-09 06:29:26,15.0884559,0.0001543,53.2161,124.2596,84.4105,275.7064,-3.8082e-05,-8.94e-06,0.0,0 STARLINK-3551,1 51887U 22022AM  24130.27044115 -.00000894  00000-0 -38082-4 0  9999,2 51887  53.2161 124.2596 0001543  84.4105 275.7064 15.08845590122183,6917.863,95.437,540.796,538.661,0.0
51887.0,STARLINK-3551,PAYLOAD,2024-05-09 16:01:44,15.08843259,0.0001534,53.2161,122.4757,84.448,275.6687,-3.1331e-05,-7.87e-06,0.0,0 STARLINK-3551,1 51887U 22022AM  24130.66788155 -.00000787  00000-0 -31331-4 0  9992,2 51887  53.2161 122.4757 0001534  84.4480 275.6687 15.08843259122245,6917.87,95.437,540.797,538.674,0.0
51887.0,STARLINK-3551,PAYLOAD,2024-05-10 04:44:49,15.08842077,0.0001513,53.2162,120.0968,84.7518,275.3647,2.6231e-05,1.3e-06,0.0,0 STARLINK-3551,1 51887U 22022AM  24131.19780043  .00000130  00000-0  26231-4 0  9992,2 51887  53.2162 120.0968 0001513  84.7518 275.3647 15.08842077122325,6917.874,95.437,540.786,538.692,0.0
51887.0,STARLINK-3551,PAYLOAD,2024-05-10 06:20:12,15.08843995,0.0001504,53.2162,119.7995,84.7305,275.3859,4.1061e-05,3.66e-06,0.0,0 STARLINK-3551,1 51887U 22022AM  24131.26403860  .00000366  00000-0  41061-4 0  9998,2 51887  53.2162 119.7995 0001504  84.7305 275.3859 15.08843995122330,6917.868,95.437,540.774,538.693,0.0
51887.0,STARLINK-3551,PAYLOAD,2024-05-10 19:03:18,15.08832791,0.0001491,53.2162,117.4219,89.5307,270.5856,2.5952e-05,1.25e-06,0.0,0 STARLINK-3551,1 51887U 22022AM  24131.79396629  .00000125  00000-0  25952-4 0  9994,2 51887  53.2162 117.4219 0001491  89.5307 270.5856 15.08832791122419,6917.902,95.438,540.799,538.736,0.0
51887.0,STARLINK-3551,PAYLOAD,2024-05-11 04:35:36,15.08847551,0.0001437,53.2162,115.6375,91.8734,268.2423,0.00014946,2.092e-05,0.0,0 STARLINK-3551,1 51887U 22022AM  24132.19139579  .00002092  00000-0  14946-3 0  9993,2 51887  53.2162 115.6375 0001437  91.8734 268.2423 15.08847551122472,6917.857,95.437,540.716,538.728,0.0
51887.0,STARLINK-3551,PAYLOAD,2024-05-11 20:29:31,15.08806634,0.0001471,53.2161,112.6645,78.526,281.5897,-0.00022023,-3.788e-05,0.0,0 STARLINK-3551,1 51887U 22022AM  24132.85383214 -.00003788  00000-0 -22023-3 0  9993,2 51887  53.2161 112.6645 0001471  78.5260 281.5897 15.08806634122573,6917.982,95.44,540.865,538.83,0.0
51887.0,STARLINK-3551,PAYLOAD,2024-05-12 04:26:26,15.08806206,0.0001524,53.2155,111.1775,74.7467,285.3693,-0.00038648,-6.428e-05,0.0,0 STARLINK-3551,1 51887U 22022AM  24133.18502492 -.00006428  00000-0 -38648-3 0  9995,2 51887  53.2155 111.1775 0001524  74.7467 285.3693 15.08806206122627,6917.984,95.44,540.903,538.794,0.0
51887.0,STARLINK-3551,PAYLOAD,2024-05-12 07:37:12,15.0880594,0.0001524,53.2156,110.5827,74.7409,285.3752,-0.00036023,-6.011e-05,0.0,0 STARLINK-3551,1 51887U 22022AM  24133.31750762 -.00006011  00000-0 -36023-3 0  9998,2 51887  53.2156 110.5827 0001524  74.7409 285.3752 15.08805940122647,6917.984,95.44,540.904,538.795,0.0
51887.0,STARLINK-3551,PAYLOAD,2024-05-12 17:09:32,15.0880602,0.0001536,53.2158,108.7987,74.5351,285.5811,-0.00022594,-3.879e-05,0.0,0 STARLINK-3551,1 51887U 22022AM  24133.71495586 -.00003879  00000-0 -22594-3 0  9999,2 51887  53.2158 108.7987 0001536  74.5351 285.5811 15.08806020122707,6917.984,95.44,540.912,538.787,0.0
51887.0,STARLINK-3551,PAYLOAD,2024-05-13 04:17:13,15.08831561,0.0001436,53.216,106.7163,78.9587,281.1566,0.0001687,2.397e-05,0.0,0 STARLINK-3551,1 51887U 22022AM  24134.17862904  .00002397  00000-0  16870-3 0  9994,2 51887  53.2160 106.7163 0001436  78.9587 281.1566 15.08831561122776,6917.906,95.438,540.765,538.778,0.0
51887.0,STARLINK-3551,PAYLOAD,2024-05-13 07:27:59,15.08836891,0.0001563,53.2165,106.1202,72.4836,287.6327,0.00017158,2.444e-05,0.0,0 STARLINK-3551,1 51887U 22022AM  24134.31110671  .00002444  00000-0  17158-3 0  9990,2 51887  53.2165 106.1202 0001563  72.4836 287.6327 15.08836891122795,6917.89,95.438,540.836,538.674,0.0
51887.0,STARLINK-3551,PAYLOAD,2024-05-13 21:46:28,15.08834431,0.0001525,53.216,103.4453,69.6957,290.4199,0.00061381,9.493e-05,0.0,0 STARLINK-3551,1 51887U 22022AM  24134.90727280  .00009493  00000-0  61381-3 0  9993,2 51887  53.2160 103.4453 0001525  69.6957 290.4199 15.08834431122885,6917.897,95.438,540.817,538.707,0.0
51887.0,STARLINK-3551,PAYLOAD,2024-05-14 04:08:00,15.08844178,0.0001502,53.216,102.2556,70.0426,290.0728,0.00062438,9.664e-05,0.0,0 STARLINK-3551,1 51887U 22022AM  24135.17222944  .00009664  00000-0  62438-3 0  9994,2 51887  53.2160 102.2556 0001502  70.0426 290.0728 15.08844178122926,6917.868,95.437,540.772,538.694,0.0
51887.0,STARLINK-3551,PAYLOAD,2024-05-14 16:51:05,15.08854139,0.00015,53.2159,99.8768,72.1699,287.9457,0.00052133,8.022e-05,0.0,0 STARLINK-3551,1 51887U 22022AM  24135.70214297  .00008022  00000-0  52133-3 0  9993,2 51887  53.2159  99.8768 0001500  72.1699 287.9457 15.08854139123005,6917.837,95.437,540.74,538.664,0.0
51887.0,STARLINK-3551,PAYLOAD,2024-05-15 03:58:46,15.08867915,0.0001458,53.2159,97.7948,75.5533,284.5621,0.00046705,7.159e-05,0.0,0 STARLINK-3551,1 51887U 22022AM  24136.16581211  .00007159  00000-0  46705-3 0  9995,2 51887  53.2159  97.7948 0001458  75.5533 284.5621 15.08867915123077,6917.795,95.436,540.669,538.651,0.0
51887.0,STARLINK-3551,PAYLOAD,2024-05-15 07:09:32,15.08870441,0.0001501,53.2159,97.2,76.1772,283.9387,0.00036283,5.496e-05,0.0,0 STARLINK-3551,1 51887U 22022AM  24136.29828837  .00005496  00000-0  36283-3 0  9999,2 51887  53.2159  97.2000 0001501  76.1772 283.9387 15.08870441123094,6917.787,95.436,540.691,538.614,0.0
51887.0,STARLINK-3551,PAYLOAD,2024-05-15 21:28:00,15.08855687,0.0001469,53.2159,94.524,77.0736,283.042,1.6603e-05,-2.4e-07,0.0,0 STARLINK-3551,1 51887U 22022AM  24136.89444742 -.00000024  00000-0  16603-4 0  9992,2 51887  53.2159  94.5240 0001469  77.0736 283.0420 15.08855687123187,6917.832,95.437,540.714,538.681,0.0
